# Colors are mainly derived from B-V and V-R indices, most of which
# come from the MBOSS compilation: http://www.eso.org/~ohainaut/MBOSS/
# Centaur colors are derived from SMASS spectra: http://smass.mit.edu/smass.html
# They are converted to RGB values using Askaniy's TrueColorTools:
# https://github.com/Askaniy/TrueColorTools
# or FarGetaNik's color calculator:
# https://docs.google.com/spreadsheets/d/1NvPGGiql5EdOUVTynE8CyoB9P4rSjblmzppyNGjR6bI/edit
# or Matt Wronkiewicz's spectrum2rgb utility that is distributed with the Celestia source package.
# These are then scaled for albedo = 0.5 textures by dividing 0.735357 with them.
# https://docs.google.com/spreadsheets/d/1POAssGnBsFBGyoevCkom8sHODIgdsn_s/edit

# Orbits for satellites have been taken from Emelyanov & Drozdov (2020), MNRAS 494 (2), 2410
# "Determination of the orbits of 62 moons of asteroids based on astrometric observations."
# with exceptions being listed as comments over this file.
# In cases where the system barycenters have been defined as ReferencePoints, the
# mass ratios (and thus relative semi-major axes) have been computed from the cube of
# the component sizes, under the assumption of equal densities for both of them.

# Satellites smaller than 200 km are classified as 'minormoon', otherwise they are moon.
# Small satellites with mass ratio of over 1:25 relative to their parent are given their physical class instead.

# If no actual measurements are available, rotation periods are based on
# Thirouin et al. (2014), A&A 569, A3
# "Rotational properties of the binary and non-binary populations in the trans-Neptunian belt"
# https://ui.adsabs.harvard.edu/abs/2014A%26A...569A...3T/abstract
# TNOs: 9 hr for non-binary objects, 10 hr for binary objects.


# Notable centaurs

# Ortiz et al. (2015), A&A 576, A18
# "Possible ring material around centaur (2060) Chiron"
# https://www.aanda.org/articles/aa/abs/2015/04/aa24461-14/aa24461-14.html
# Shape and geometric albedo from Braga-Ribas et al. (2023), A&A 676, A72
# "Constraints on (2060) Chiron's size, shape, and surrounding material from
# the November 2018 and September 2019 stellar occultations"
# https://ui.adsabs.harvard.edu/abs/2023A%26A...676A..72B/abstract
# Orientation from Ortiz et al. (2023), A&A 676, L12
# "Changing material around (2060) Chiron revealed by an occultation on December 15, 2022"
# https://ui.adsabs.harvard.edu/abs/2023A%26A...676L..12O/abstract
# Rings from Sickafoose et al. (2023), PSJ 4 (11), id.221
# "Material around the Centaur (2060) Chiron from the 2018 November 28 UT Stellar Occultation"
# https://ui.adsabs.harvard.edu/abs/2023PSJ.....4..221S/abstract
"2060 Chiron:Chiron:1977 UB:95P Chiron:P 1977 UB" "Sol"
{
	Class	"asteroid"
	# Class	"comet"
	Mesh	"roughsphere.cms"
	Texture	"asteroid.*"
	Color	[ 0.459 0.459 0.458 ]
	BlendTexture	true
	SemiAxes	[ 126 109 68 ]
	EllipticalOrbit
	{
		Epoch	2457000.5  # 2014 Dec 09
		Period	50.367656524406
		SemiMajorAxis	13.63836664794301
		Eccentricity	0.3820988962489677
		Inclination	6.93836227190589
		AscendingNode	209.2780463186957
		ArgOfPericenter	339.3496505871891
		MeanAnomaly	134.5261255874151
	}
	UniformRotation  # aligned with rings, ecliptic coordinates
	{
		Period	5.917813
		Inclination	72
		AscendingNode	241
	}
	Rings
	{
		Inner	341.66
		Outer	353.77
		Texture	"chiron-rings.*"
	}
	LunarLambert	0.5
	GeomAlbedo	0.076  # main body
	InfoURL	"https://en.wikipedia.org/wiki/2060_Chiron"
}

# Morgado et al. (2021), A&A 652, A141
# "Refined physical parameters for Chariklo's body and rings
# from stellar occultations observed between 2013 and 2020"
# https://ui.adsabs.harvard.edu/abs/2021A%26A...652A.141M/abstract
# Pole position from Leiva et al. (2017), AJ 154 (4), 159
# "Size and Shape of Chariklo from Multi-epoch Stellar Occultations"
# https://iopscience.iop.org/article/10.3847/1538-3881/aa8956
"10199 Chariklo:Chariklo:1997 CU26" "Sol"
{
	Class	"asteroid"
	Mesh	"roughsphere.cms"
	Texture	"asteroid.*"
	Color	[ 0.328 0.317 0.286 ]
	BlendTexture	true
	SemiAxes	[ 143.8 135.2 99.1 ]
	EllipticalOrbit
	{
		Epoch	2458000.5  # 2017 Sept 04
		Period	62.934615411961
		SemiMajorAxis	15.821740368798
		Eccentricity	0.172090627773
		Inclination	23.382362400587
		AscendingNode	300.416187483083
		ArgOfPericenter	242.895770634609
		MeanAnomaly	77.670023037241
	}
	BodyFrame	{ EquatorJ2000 { } }
	UniformRotation
	{
		Period	7.004
		Inclination	48.52
		AscendingNode	241.3
	}
	Rings  # derived from ring radii and average widths by Morgado et al. (2021)
	{
		Inner	382.5
		Outer	399.9
		Texture	"chariklo-rings.*"
	}
	LunarLambert	0.5
	GeomAlbedo	0.038  # main body
	InfoURL	"https://en.wikipedia.org/wiki/10199_Chariklo"
}

# Notable trans-Neptunian objects

"15760 Albion:Albion:1992 QB1" "Sol"
{
	Class	"asteroid"
	Mesh	"asteroid.cms"
	Texture	"asteroid.*"
	Color	[ 1.0 0.932 0.872 ]
	BlendTexture	true
	Radius	54
	EllipticalOrbit
	{
		Epoch	2458200.5  # 2018 Mar 23
		Period	288.991711307239
		SemiMajorAxis	43.710400891912
		Eccentricity	0.06597077878
		Inclination	2.186162143948
		AscendingNode	359.407421030794
		ArgOfPericenter	0.155188951253
		MeanAnomaly	32.083132101851
	}
	UniformRotation
	{
		Period	9  # no measurement
	}
	LunarLambert	0.5
	GeomAlbedo	0.2  # assumed
	InfoURL	"https://en.wikipedia.org/wiki/15760_Albion"
}

"19521 Chaos:Chaos:1998 WH24" "Sol"
{
	Class	"asteroid"
	Texture	"asteroid.*"
	Color	[ 0.392 0.37 0.335 ]
	BlendTexture	true
	Radius	300
	EllipticalOrbit
	{
		Epoch	2457000.5  # 2014 Dec 09
		Period	311.355238689112
		SemiMajorAxis	45.937284248341
		Eccentricity	0.107954342926
		Inclination	12.037508936202
		AscendingNode	49.989281303915
		ArgOfPericenter	57.52567525546
		MeanAnomaly	336.892338216847
	}
	UniformRotation
	{
		Period	95.64
	}
	LunarLambert	0.5
	GeomAlbedo	0.050
	InfoURL	"https://en.wikipedia.org/wiki/19521_Chaos"
}

# Fernández-Valenzuela et al. (2019), ApJL 883 (1), L21
# "The Changing Rotational Light-curve Amplitude of Varuna and Evidence for a Close-in Satellite"
# https://iopscience.iop.org/article/10.3847/2041-8213/ab40c2
"20000 Varuna:Varuna:2000 WR106" "Sol"
{
	Class	"asteroid"
	Texture	"asteroid.*"
	Color	[ 0.712 0.674 0.621 ]
	BlendTexture	true
	Radius	502  # long-axis from occultation
	SemiAxes	[ 1 0.6 0.432 ]  # hydrostatic equilibrium assumed
	EllipticalOrbit
	{
		Epoch	2458600.5  # 2019 Apr 27
		Period	279.826385408313
		SemiMajorAxis	42.781266787405
		Eccentricity	0.054126386935
		Inclination	17.219680092474
		AscendingNode	97.369341977692
		ArgOfPericenter	262.875078141022
		MeanAnomaly	117.223797711347
	}
	UniformRotation
	{
		Period	6.343572
		Inclination	154
		AscendingNode	143
	}
	LunarLambert	0.5
	GeomAlbedo	0.127
	InfoURL	"https://en.wikipedia.org/wiki/20000_Varuna"
}

# Photometric color calculated with spectral data from Marchi et al. (2003), A&A 408, L17-L19
# "Visible spectroscopy of the two largest known trans-Neptunian objects: Ixion and Quaoar"
# https://ui.adsabs.harvard.edu/abs/2003A%26A...408L..17M/abstract
# Geometric albedo and phase integral for color from Verbiscer et al. (2022), Planet. Sci. J. 3, 95
# "The Diverse Shapes of Dwarf Planet and Large KBO Phase Curves Observed from New Horizons"
# https://ui.adsabs.harvard.edu/abs/2022PSJ.....3...95V/abstract
"28978 Ixion:Ixion:2001 KX76" "Sol"
{
	Class	"asteroid"
	Texture	"asteroid.*"
	Color	[ 0.342 0.316 0.277 ]
	BlendTexture	true
	Radius	308.5
	EllipticalOrbit
	{
		Epoch	2458200.5  # 2018 Mar 23
		Period	250.267192068746
		SemiMajorAxis	39.712797304978
		Eccentricity	0.242215549692
		Inclination	19.580788128563
		AscendingNode	70.991108341519
		ArgOfPericenter	298.578486340711
		MeanAnomaly	284.989387403958
	}
	UniformRotation
	{
		Period	12.4
	}
	LunarLambert	0.5
	GeomAlbedo	0.108
	InfoURL	"https://en.wikipedia.org/wiki/28978_Ixion"
}

ReferencePoint "Huya System" "Sol"
{
	EllipticalOrbit
	{
		Epoch	2458600.5  # 2019 Apr 27
		Period	251.421969003257
		SemiMajorAxis	39.834864782384
		Eccentricity	0.283442833541
		Inclination	15.470167417658
		AscendingNode	169.327766003688
		ArgOfPericenter	68.273717081769
		MeanAnomaly	5.794887299879
	}
	# Make the orbit and label visible
	Visible true
	Clickable true
}

# Geometric albedo from Santos-Sanz et al. (2022), A&A 664, A130
# "Physical properties of the trans-Neptunian object (38628) Huya from a multi-chord stellar occultation"
# https://ui.adsabs.harvard.edu/abs/2022A%26A...664A.130S/abstract
"38628 Huya:Huya:2000 EB173" "Sol"
{
	Class	"asteroid"
	Mesh	"roughsphere.cms"
	Texture	"asteroid.*"
	Color	[ 0.492 0.465 0.418 ]
	BlendTexture	true
	Radius	203
	OrbitFrame
	{
		EclipticJ2000	{ Center "Sol/Huya System" }
	}
	EllipticalOrbit
	{
		Period	3.2
		SemiMajorAxis	220
		ArgOfPericenter	180
	}
	UniformRotation
	{
		Period	5.28
	}
	LunarLambert	0.5
	GeomAlbedo	0.079
	InfoURL	"https://en.wikipedia.org/wiki/38628_Huya"
}

"S 2012 (38628) 1" "Sol/Huya"
{
	Class	"asteroid"
	Mesh	"roughsphere.cms"
	Texture	"asteroid.*"
	Color	[ 0.492 0.465 0.418 ]  # assume same color as primary
	BlendTexture	true
	Radius	106.5
	OrbitFrame
	{
		EclipticJ2000	{ Center "Sol/Huya System" }
	}
	EllipticalOrbit  # estimated
	{
		Period	3.2
		SemiMajorAxis	1520  # minimum separation
	}
	LunarLambert	0.5
	GeomAlbedo	0.079  # assume same albedo as primary
	InfoURL	"https://en.wikipedia.org/wiki/38628_Huya#Satellite"
}

# System geometric albedo from Mommert et al. (2012), A&A 541, A93
# "TNOs are cool: A survey of the trans-Neptunian region. V.
# Physical characterization of 18 Plutinos using Herschel-PACS observations"
# https://ui.adsabs.harvard.edu/abs/2012A%26A...541A..93M/abstract
